COSMOS 2600             
1 67674U 26023A   26055.56622473  .00091105  00000+0  41379-3 0  9998
2 67674  96.6461 131.6210 0001362  49.8071 310.3320 15.83635302  2975
2026-023B               
1 67675U 26023B   26056.82670846  .00012053  00000+0  51736-3 0  9999
2 67675  96.6379 131.1496 0018654 172.5919 187.5598 15.22666925  3051
2026-023C               
1 67676U 26023C   26056.89153394  .00012140  00000+0  51937-3 0  9991
2 67676  96.6415 131.2264 0019802 162.5775 197.6147 15.22757002  3220
2026-023D               
1 67677U 26023D   26056.82753459  .00010779  00000+0  46374-3 0  9998
2 67677  96.6445 131.1548 0019967 167.7698 192.4030 15.22591469  3048
2026-023E               
1 67678U 26023E   26056.82616428  .00011956  00000+0  51189-3 0  9991
2 67678  96.6339 131.1444 0019779 167.2240 192.9504 15.22734186  3041
2026-023F               
1 67679U 26023F   26056.89003646  .00013599  00000+0  57853-3 0  9990
2 67679  96.6346 133.7011 0021699 161.8856 198.3160 15.22886078  3041
2026-023G               
1 67680U 26023G   26056.89054753  .00013207  00000+0  56223-3 0  9993
2 67680  96.6274 133.6900 0023266 158.4598 201.7625 15.22838589  3045
2026-023H               
1 67681U 26023H   26056.36474858  .00010368  00000+0  44268-3 0  9999
2 67681  96.6418 133.2433 0023247 159.6180 200.5992 15.22791786  2963
2026-023J               
1 67682U 26023J   26056.88969966  .00008125  00000+0  34647-3 0  9994
2 67682  96.6375 133.7161 0023527 154.6239 205.6161 15.22891524  3045
ISS OBJECT XZ           
1 67683U 98067XZ  26056.68111980  .00033918  00000+0  58250-3 0  9999
2 67683  51.6309 131.4691 0009828 145.9555 214.2066 15.50778677  2929
GXIBA-1                 
1 67684U 98067YA  26056.41169788  .00062280  00000+0  10031-2 0  9998
2 67684  51.6310 132.6717 0011314 136.6154 223.5729 15.52283656  2883
CORAL                   
1 67685U 98067YB  26056.42128185  .00038274  00000+0  65018-3 0  9998
2 67685  51.6309 132.7349 0011765 141.4592 218.7239 15.51003889  2883
