CCSDS_OMM_VERS = 2.0
CREATION_DATE  = 
ORIGINATOR     = 

OBJECT_NAME    = COSMOS 2600
OBJECT_ID      = 2026-023A
CENTER_NAME    = EARTH
REF_FRAME      = TEME
TIME_SYSTEM    = UTC
MEAN_ELEMENT_THEORY = SGP/SGP4

EPOCH          = 2026-02-24T13:35:21.816672
MEAN_MOTION    = 15.83635302
ECCENTRICITY   = .0001362
INCLINATION    = 96.6461
RA_OF_ASC_NODE = 131.6210
ARG_OF_PERICENTER = 49.8071
MEAN_ANOMALY   = 310.3320

EPHEMERIS_TYPE = 0
CLASSIFICATION_TYPE = U
NORAD_CAT_ID   = 67674
ELEMENT_SET_NO = 999
REV_AT_EPOCH   = 297
BSTAR          = .41379E-3
MEAN_MOTION_DOT = .91105E-3
MEAN_MOTION_DDOT = 0

CCSDS_OMM_VERS = 2.0
CREATION_DATE  = 
ORIGINATOR     = 

OBJECT_NAME    = 2026-023B
OBJECT_ID      = 2026-023B
CENTER_NAME    = EARTH
REF_FRAME      = TEME
TIME_SYSTEM    = UTC
MEAN_ELEMENT_THEORY = SGP/SGP4

EPOCH          = 2026-02-25T19:50:27.610944
MEAN_MOTION    = 15.22666925
ECCENTRICITY   = .0018654
INCLINATION    = 96.6379
RA_OF_ASC_NODE = 131.1496
ARG_OF_PERICENTER = 172.5919
MEAN_ANOMALY   = 187.5598

EPHEMERIS_TYPE = 0
CLASSIFICATION_TYPE = U
NORAD_CAT_ID   = 67675
ELEMENT_SET_NO = 999
REV_AT_EPOCH   = 305
BSTAR          = .51736E-3
MEAN_MOTION_DOT = .12053E-3
MEAN_MOTION_DDOT = 0

CCSDS_OMM_VERS = 2.0
CREATION_DATE  = 
ORIGINATOR     = 

OBJECT_NAME    = 2026-023C
OBJECT_ID      = 2026-023C
CENTER_NAME    = EARTH
REF_FRAME      = TEME
TIME_SYSTEM    = UTC
MEAN_ELEMENT_THEORY = SGP/SGP4

EPOCH          = 2026-02-25T21:23:48.532416
MEAN_MOTION    = 15.22757002
ECCENTRICITY   = .0019802
INCLINATION    = 96.6415
RA_OF_ASC_NODE = 131.2264
ARG_OF_PERICENTER = 162.5775
MEAN_ANOMALY   = 197.6147

EPHEMERIS_TYPE = 0
CLASSIFICATION_TYPE = U
NORAD_CAT_ID   = 67676
ELEMENT_SET_NO = 999
REV_AT_EPOCH   = 322
BSTAR          = .51937E-3
MEAN_MOTION_DOT = .1214E-3
MEAN_MOTION_DDOT = 0

CCSDS_OMM_VERS = 2.0
CREATION_DATE  = 
ORIGINATOR     = 

OBJECT_NAME    = 2026-023D
OBJECT_ID      = 2026-023D
CENTER_NAME    = EARTH
REF_FRAME      = TEME
TIME_SYSTEM    = UTC
MEAN_ELEMENT_THEORY = SGP/SGP4

EPOCH          = 2026-02-25T19:51:38.988576
MEAN_MOTION    = 15.22591469
ECCENTRICITY   = .0019967
INCLINATION    = 96.6445
RA_OF_ASC_NODE = 131.1548
ARG_OF_PERICENTER = 167.7698
MEAN_ANOMALY   = 192.4030

EPHEMERIS_TYPE = 0
CLASSIFICATION_TYPE = U
NORAD_CAT_ID   = 67677
ELEMENT_SET_NO = 999
REV_AT_EPOCH   = 304
BSTAR          = .46374E-3
MEAN_MOTION_DOT = .10779E-3
MEAN_MOTION_DDOT = 0

CCSDS_OMM_VERS = 2.0
CREATION_DATE  = 
ORIGINATOR     = 

OBJECT_NAME    = 2026-023E
OBJECT_ID      = 2026-023E
CENTER_NAME    = EARTH
REF_FRAME      = TEME
TIME_SYSTEM    = UTC
MEAN_ELEMENT_THEORY = SGP/SGP4

EPOCH          = 2026-02-25T19:49:40.593792
MEAN_MOTION    = 15.22734186
ECCENTRICITY   = .0019779
INCLINATION    = 96.6339
RA_OF_ASC_NODE = 131.1444
ARG_OF_PERICENTER = 167.2240
MEAN_ANOMALY   = 192.9504

EPHEMERIS_TYPE = 0
CLASSIFICATION_TYPE = U
NORAD_CAT_ID   = 67678
ELEMENT_SET_NO = 999
REV_AT_EPOCH   = 304
BSTAR          = .51189E-3
MEAN_MOTION_DOT = .11956E-3
MEAN_MOTION_DDOT = 0

CCSDS_OMM_VERS = 2.0
CREATION_DATE  = 
ORIGINATOR     = 

OBJECT_NAME    = 2026-023F
OBJECT_ID      = 2026-023F
CENTER_NAME    = EARTH
REF_FRAME      = TEME
TIME_SYSTEM    = UTC
MEAN_ELEMENT_THEORY = SGP/SGP4

EPOCH          = 2026-02-25T21:21:39.150144
MEAN_MOTION    = 15.22886078
ECCENTRICITY   = .0021699
INCLINATION    = 96.6346
RA_OF_ASC_NODE = 133.7011
ARG_OF_PERICENTER = 161.8856
MEAN_ANOMALY   = 198.3160

EPHEMERIS_TYPE = 0
CLASSIFICATION_TYPE = U
NORAD_CAT_ID   = 67679
ELEMENT_SET_NO = 999
REV_AT_EPOCH   = 304
BSTAR          = .57853E-3
MEAN_MOTION_DOT = .13599E-3
MEAN_MOTION_DDOT = 0

CCSDS_OMM_VERS = 2.0
CREATION_DATE  = 
ORIGINATOR     = 

OBJECT_NAME    = 2026-023G
OBJECT_ID      = 2026-023G
CENTER_NAME    = EARTH
REF_FRAME      = TEME
TIME_SYSTEM    = UTC
MEAN_ELEMENT_THEORY = SGP/SGP4

EPOCH          = 2026-02-25T21:22:23.306592
MEAN_MOTION    = 15.22838589
ECCENTRICITY   = .0023266
INCLINATION    = 96.6274
RA_OF_ASC_NODE = 133.6900
ARG_OF_PERICENTER = 158.4598
MEAN_ANOMALY   = 201.7625

EPHEMERIS_TYPE = 0
CLASSIFICATION_TYPE = U
NORAD_CAT_ID   = 67680
ELEMENT_SET_NO = 999
REV_AT_EPOCH   = 304
BSTAR          = .56223E-3
MEAN_MOTION_DOT = .13207E-3
MEAN_MOTION_DDOT = 0

CCSDS_OMM_VERS = 2.0
CREATION_DATE  = 
ORIGINATOR     = 

OBJECT_NAME    = 2026-023H
OBJECT_ID      = 2026-023H
CENTER_NAME    = EARTH
REF_FRAME      = TEME
TIME_SYSTEM    = UTC
MEAN_ELEMENT_THEORY = SGP/SGP4

EPOCH          = 2026-02-25T08:45:14.277312
MEAN_MOTION    = 15.22791786
ECCENTRICITY   = .00232476
INCLINATION    = 96.6418
RA_OF_ASC_NODE = 133.2433
ARG_OF_PERICENTER = 159.6180
MEAN_ANOMALY   = 200.5992

EPHEMERIS_TYPE = 0
CLASSIFICATION_TYPE = U
NORAD_CAT_ID   = 67681
ELEMENT_SET_NO = 999
REV_AT_EPOCH   = 296
BSTAR          = .44268211E-3
MEAN_MOTION_DOT = .10368E-3
MEAN_MOTION_DDOT = 0

CCSDS_OMM_VERS = 2.0
CREATION_DATE  = 
ORIGINATOR     = 

OBJECT_NAME    = 2026-023J
OBJECT_ID      = 2026-023J
CENTER_NAME    = EARTH
REF_FRAME      = TEME
TIME_SYSTEM    = UTC
MEAN_ELEMENT_THEORY = SGP/SGP4

EPOCH          = 2026-02-25T21:21:10.050624
MEAN_MOTION    = 15.22891524
ECCENTRICITY   = .0023527
INCLINATION    = 96.6375
RA_OF_ASC_NODE = 133.7161
ARG_OF_PERICENTER = 154.6239
MEAN_ANOMALY   = 205.6161

EPHEMERIS_TYPE = 0
CLASSIFICATION_TYPE = U
NORAD_CAT_ID   = 67682
ELEMENT_SET_NO = 999
REV_AT_EPOCH   = 304
BSTAR          = .34647E-3
MEAN_MOTION_DOT = .8125E-4
MEAN_MOTION_DDOT = 0

CCSDS_OMM_VERS = 2.0
CREATION_DATE  = 
ORIGINATOR     = 

OBJECT_NAME    = ISS OBJECT XZ
OBJECT_ID      = 1998-067XZ
CENTER_NAME    = EARTH
REF_FRAME      = TEME
TIME_SYSTEM    = UTC
MEAN_ELEMENT_THEORY = SGP/SGP4

EPOCH          = 2026-02-25T16:20:48.750720
MEAN_MOTION    = 15.50778677
ECCENTRICITY   = .0009828
INCLINATION    = 51.6309
RA_OF_ASC_NODE = 131.4691
ARG_OF_PERICENTER = 145.9555
MEAN_ANOMALY   = 214.2066

EPHEMERIS_TYPE = 0
CLASSIFICATION_TYPE = U
NORAD_CAT_ID   = 67683
ELEMENT_SET_NO = 999
REV_AT_EPOCH   = 292
BSTAR          = .5825E-3
MEAN_MOTION_DOT = .33918E-3
MEAN_MOTION_DDOT = 0

CCSDS_OMM_VERS = 2.0
CREATION_DATE  = 
ORIGINATOR     = 

OBJECT_NAME    = GXIBA-1
OBJECT_ID      = 1998-067YA
CENTER_NAME    = EARTH
REF_FRAME      = TEME
TIME_SYSTEM    = UTC
MEAN_ELEMENT_THEORY = SGP/SGP4

EPOCH          = 2026-02-25T09:52:50.696832
MEAN_MOTION    = 15.52283656
ECCENTRICITY   = .0011314
INCLINATION    = 51.6310
RA_OF_ASC_NODE = 132.6717
ARG_OF_PERICENTER = 136.6154
MEAN_ANOMALY   = 223.5729

EPHEMERIS_TYPE = 0
CLASSIFICATION_TYPE = U
NORAD_CAT_ID   = 67684
ELEMENT_SET_NO = 999
REV_AT_EPOCH   = 288
BSTAR          = .10031312E-2
MEAN_MOTION_DOT = .6228E-3
MEAN_MOTION_DDOT = 0

CCSDS_OMM_VERS = 2.0
CREATION_DATE  = 
ORIGINATOR     = 

OBJECT_NAME    = CORAL
OBJECT_ID      = 1998-067YB
CENTER_NAME    = EARTH
REF_FRAME      = TEME
TIME_SYSTEM    = UTC
MEAN_ELEMENT_THEORY = SGP/SGP4

EPOCH          = 2026-02-25T10:06:38.751840
MEAN_MOTION    = 15.51003889
ECCENTRICITY   = .0011765
INCLINATION    = 51.6309
RA_OF_ASC_NODE = 132.7349
ARG_OF_PERICENTER = 141.4592
MEAN_ANOMALY   = 218.7239

EPHEMERIS_TYPE = 0
CLASSIFICATION_TYPE = U
NORAD_CAT_ID   = 67685
ELEMENT_SET_NO = 999
REV_AT_EPOCH   = 288
BSTAR          = .65017707E-3
MEAN_MOTION_DOT = .38274E-3
MEAN_MOTION_DDOT = 0

